{"spkid": "54224424", "covariance": {"epoch": "2460037.5", "elements": [{"label": "e", "value": ".5658314980009406", "title": "eccentricity", "units": null, "sigma": 7.17438598695316e-07, "name": "e"}, {"label": "q", "sigma": 1.13803624341114e-06, "name": "q", "title": "perihelion distance", "value": ".6876138873623271", "units": "au"}, {"sigma": 3.1513371871837e-05, "name": "tp", "value": "2460218.817841023647", "title": "time of perihelion passage", "units": "TDB", "label": "tp"}, {"name": "om", "sigma": 8.75144754896256e-05, "units": "deg", "value": "255.5347070779344", "title": "longitude of the ascending node", "label": "node"}, {"sigma": 0.000157394567511125, "name": "w", "title": "argument of perihelion", "value": "80.38574546212921", "units": "deg", "label": "peri"}, {"units": "deg", "value": "4.612123086905963", "title": "inclination", "sigma": 4.37587323782e-05, "name": "i", "label": "i"}], "data": [["5.147181428978994E-13", "-8.164607004970044E-13", "-6.983352815819007E-12", "2.925563305838451E-12", "-9.547388025110286E-11", "-8.954462857839942E-13"], ["-8.164607004970044E-13", "1.295126491317331E-12", "1.123090300476212E-11", "-4.489102826130099E-12", "1.514192035224543E-10", "1.271472628454002E-12"], ["-6.983352815819007E-12", "1.123090300476212E-11", "9.930926067326845E-10", "7.092166523903849E-10", "1.324881411503445E-9", "-7.842753239382094E-10"], ["2.925563305838451E-12", "-4.489102826130099E-12", "7.092166523903849E-10", "7.658783420224283E-9", "-7.552101568531197E-9", "-3.326252858442015E-9"], ["-9.547388025110286E-11", "1.514192035224543E-10", "1.324881411503445E-9", "-7.552101568531197E-9", "2.477304988201411E-8", "2.808305792628726E-9"], ["-8.954462857839942E-13", "1.271472628454002E-12", "-7.842753239382094E-10", "-3.326252858442015E-9", "2.808305792628726E-9", "1.914826659346929E-9"]], "labels": ["e", "q", "tp", "node", "peri", "i"]}, "elements": [{"title": "eccentricity", "value": ".5656247119019605", "units": null, "name": "e", "sigma": "7.185E-7", "label": "e"}, {"units": "au", "title": "semi-major axis", "value": "1.582655995908758", "sigma": "1.2154E-8", "name": "a", "label": "a"}, {"title": "perihelion distance", "value": ".6874666541829562", "units": "au", "sigma": "1.14E-6", "name": "q", "label": "q"}, {"value": "4.633135745807681", "title": "inclination; angle with respect to x-y ecliptic plane", "units": "deg", "sigma": "4.3653E-5", "name": "i", "label": "i"}, {"label": "node", "units": "deg", "title": "longitude of the ascending node", "value": "255.4144921253506", "name": "om", "sigma": "8.6119E-5"}, {"sigma": ".00015725", "name": "w", "value": "80.44094144001828", "title": "argument of perihelion", "units": "deg", "label": "peri"}, {"label": "M", "sigma": "2.092E-5", "name": "ma", "units": "deg", "value": "125.8861852702485", "title": "mean anomaly"}, {"value": "2460946.195649122640", "title": "time of perihelion passage", "units": "TDB", "name": "tp", "sigma": "3.9975E-5", "label": "tp"}, {"label": "period", "value": "727.240770059987", "title": "sidereal orbital period", "units": "d", "name": "per", "sigma": "8.3773E-6"}, {"title": "mean motion", "value": ".4950217518337223", "units": "deg/d", "sigma": "5.7023E-9", "name": "n", "label": "n"}, {"label": "Q", "sigma": "1.9029E-8", "name": "ad", "units": "au", "value": "2.477845337634559", "title": "aphelion distance"}], "epoch": "2461200.5"}